H1 CPF 01  gfz 2022 11 26 13  8302 terrasarx 
H2 0702601  6201 31698    2022 11 26 12 59 42 2022 12 01 00 00 42   120 1 1  0 0 0
H9
10 0 59913  82062.000000  0    1748516.424  -6220322.404   2381664.805
10 0 59913  82182.000000  0    1475725.139  -5911370.312   3206415.803
10 0 59913  82302.000000  0    1183487.917  -5494128.411   3974709.918
10 0 59913  82422.000000  0     878752.373  -4975631.481   4673035.303
10 0 59913  82542.000000  0     568544.403  -4364812.119   5289124.786
10 0 59913  82662.000000  0     259810.765  -3672337.172   5812171.376
10 0 59913  82782.000000  0     -40731.722  -2910410.948   6233014.003
10 0 59913  82902.000000  0    -326738.497  -2092552.348   6544290.950
10 0 59913  83022.000000  0    -592367.838  -1233351.378   6740561.876
10 0 59913  83142.000000  0    -832397.703   -348207.149   6818398.365
10 0 59913  83262.000000  0   -1042326.993    546949.315   6776440.833
10 0 59913  83382.000000  0   -1218459.449   1435941.751   6615420.551
10 0 59913  83502.000000  0   -1357968.379   2302640.193   6338147.520
10 0 59913  83622.000000  0   -1458942.145   3131253.358   5949464.706
10 0 59913  83742.000000  0   -1520409.698   3906617.627   5456168.225
10 0 59913  83862.000000  0   -1542344.753   4614477.621   4866894.877
10 0 59913  83982.000000  0   -1525649.912   5241754.922   4191977.244
10 0 59913  84102.000000  0   -1472119.645   5776797.885   3443266.295
10 0 59913  84222.000000  0   -1384384.044   6209606.878   2633925.848
10 0 59913  84342.000000  0   -1265834.882   6532031.612   1778200.317
10 0 59913  84462.000000  0   -1120531.993   6737933.671    891159.413
10 0 59913  84582.000000  0    -953095.052   6823309.085    -11573.434
10 0 59913  84702.000000  0    -768583.193   6786370.542   -914103.941
10 0 59913  84822.000000  0    -572364.700   6627584.099  -1800557.922
10 0 59913  84942.000000  0    -369981.306   6349656.972  -2655369.757
10 0 59913  85062.000000  0    -167011.190   5957481.307  -3463560.295
10 0 59913  85182.000000  0      31066.799   5458037.160  -4211001.083
10 0 59913  85302.000000  0     219004.801   4860256.206  -4884660.417
10 0 59913  85422.000000  0     391910.050   4174849.940  -5472825.868
10 0 59913  85542.000000  0     545358.696   3414107.145  -5965300.406
10 0 59913  85662.000000  0     675496.311   2591664.873  -6353569.070
10 0 59913  85782.000000  0     779123.708   1722259.353  -6630934.415
10 0 59913  85902.000000  0     853766.982    821462.052  -6792620.983
10 0 59913  86022.000000  0     897730.104    -94596.163  -6835849.141
10 0 59913  86142.000000  0     910129.985  -1009508.826  -6759877.518
10 0 59913  86262.000000  0     890912.914  -1906880.663  -6566012.506
10 0 59913  86382.000000  0     840853.139  -2770612.506  -6257588.051
99
